{
  "type": "FeatureCollection",
  "features": [
    {
      "type": "Feature",
      "properties": {
        "id": "1-1-flight",
        "dayId": "day-1",
        "mode": "flight",
        "verified": true,
        "source": "Migrated from reviewed V3 c48adda route geometry"
      },
      "geometry": {
        "type": "LineString",
        "coordinates": [
          [
            120.4344,
            30.2361
          ],
          [
            121.02115,
            30.57613
          ],
          [
            121.61202,
            30.9135
          ],
          [
            122.20705,
            31.24817
          ],
          [
            122.8063,
            31.58008
          ],
          [
            123.40981,
            31.90918
          ],
          [
            124.01764,
            32.2354
          ],
          [
            124.62983,
            32.55869
          ],
          [
            125.24642,
            32.87899
          ],
          [
            125.86746,
            33.19625
          ],
          [
            126.493,
            33.5104
          ]
        ]
      }
    },
    {
      "type": "Feature",
      "properties": {
        "id": "1-2-driving",
        "dayId": "day-1",
        "mode": "driving",
        "verified": true,
        "source": "Migrated from reviewed V3 c48adda route geometry"
      },
      "geometry": {
        "type": "LineString",
        "coordinates": [
          [
            126.493,
            33.5104
          ],
          [
            126.49337,
            33.50669
          ],
          [
            126.49301,
            33.50655
          ],
          [
            126.49226,
            33.5055
          ],
          [
            126.49078,
            33.50424
          ],
          [
            126.49138,
            33.50342
          ],
          [
            126.49426,
            33.50369
          ],
          [
            126.4964,
            33.50392
          ],
          [
            126.4969,
            33.49854
          ],
          [
            126.49452,
            33.49671
          ],
          [
            126.49231,
            33.49392
          ],
          [
            126.49024,
            33.49235
          ],
          [
            126.48943,
            33.48996
          ],
          [
            126.4892,
            33.4892
          ]
        ]
      }
    },
    {
      "type": "Feature",
      "properties": {
        "id": "2-1-driving",
        "dayId": "day-2",
        "mode": "driving",
        "verified": true,
        "source": "Migrated from reviewed V3 c48adda route geometry"
      },
      "geometry": {
        "type": "LineString",
        "coordinates": [
          [
            126.4892,
            33.4892
          ],
          [
            126.4676,
            33.478
          ],
          [
            126.4446,
            33.4584
          ],
          [
            126.4115,
            33.4269
          ],
          [
            126.3803,
            33.4017
          ],
          [
            126.3544,
            33.3303
          ],
          [
            126.3441,
            33.3081
          ],
          [
            126.3716,
            33.2649
          ],
          [
            126.4006,
            33.2622
          ],
          [
            126.4141,
            33.2552
          ],
          [
            126.4278,
            33.2404
          ],
          [
            126.4253,
            33.2379
          ]
        ]
      }
    },
    {
      "type": "Feature",
      "properties": {
        "id": "2-2-driving",
        "dayId": "day-2",
        "mode": "driving",
        "verified": true,
        "source": "Migrated from reviewed V3 c48adda route geometry"
      },
      "geometry": {
        "type": "LineString",
        "coordinates": [
          [
            126.4253,
            33.2379
          ],
          [
            126.4278,
            33.2404
          ],
          [
            126.4254,
            33.2433
          ],
          [
            126.4296,
            33.2467
          ],
          [
            126.4307,
            33.2495
          ],
          [
            126.4227,
            33.2519
          ],
          [
            126.4031,
            33.2592
          ],
          [
            126.3929,
            33.2642
          ],
          [
            126.3716,
            33.265
          ],
          [
            126.3539,
            33.2844
          ],
          [
            126.3468,
            33.2987
          ],
          [
            126.3342,
            33.3187
          ],
          [
            126.3212,
            33.3409
          ],
          [
            126.2994,
            33.3528
          ],
          [
            126.2874,
            33.3661
          ],
          [
            126.2745,
            33.3767
          ],
          [
            126.2692,
            33.382
          ],
          [
            126.2667,
            33.3855
          ],
          [
            126.2658,
            33.3903
          ],
          [
            126.247,
            33.3951
          ],
          [
            126.244,
            33.3969
          ],
          [
            126.2392,
            33.394
          ]
        ]
      }
    },
    {
      "type": "Feature",
      "properties": {
        "id": "2-3-walking",
        "dayId": "day-2",
        "mode": "walking",
        "verified": true,
        "source": "Migrated from reviewed V3 c48adda route geometry"
      },
      "geometry": {
        "type": "LineString",
        "coordinates": [
          [
            126.2392,
            33.394
          ],
          [
            126.23965,
            33.39415
          ],
          [
            126.24015,
            33.3941
          ],
          [
            126.24037,
            33.394
          ]
        ]
      }
    },
    {
      "type": "Feature",
      "properties": {
        "id": "2-4-walking",
        "dayId": "day-2",
        "mode": "walking",
        "verified": true,
        "source": "Migrated from reviewed V3 c48adda route geometry"
      },
      "geometry": {
        "type": "LineString",
        "coordinates": [
          [
            126.24037,
            33.394
          ],
          [
            126.2405,
            33.3942
          ],
          [
            126.2411,
            33.3947
          ],
          [
            126.2419,
            33.39517
          ]
        ]
      }
    },
    {
      "type": "Feature",
      "properties": {
        "id": "2-5-driving",
        "dayId": "day-2",
        "mode": "driving",
        "verified": true,
        "source": "Migrated from reviewed V3 c48adda route geometry"
      },
      "geometry": {
        "type": "LineString",
        "coordinates": [
          [
            126.24193,
            33.39513
          ],
          [
            126.24725,
            33.39942
          ],
          [
            126.25032,
            33.40094
          ],
          [
            126.25306,
            33.40415
          ],
          [
            126.25547,
            33.40528
          ],
          [
            126.26034,
            33.40546
          ],
          [
            126.2635,
            33.40897
          ],
          [
            126.26873,
            33.41234
          ],
          [
            126.26924,
            33.4149
          ],
          [
            126.26801,
            33.41843
          ],
          [
            126.27372,
            33.42094
          ],
          [
            126.27814,
            33.42212
          ],
          [
            126.2767,
            33.4327
          ],
          [
            126.27876,
            33.4365
          ],
          [
            126.28083,
            33.43864
          ],
          [
            126.28448,
            33.44051
          ],
          [
            126.29305,
            33.44347
          ],
          [
            126.30096,
            33.44442
          ],
          [
            126.3052,
            33.44597
          ],
          [
            126.30845,
            33.44923
          ],
          [
            126.30925,
            33.45593
          ],
          [
            126.31113,
            33.45929
          ]
        ]
      }
    },
    {
      "type": "Feature",
      "properties": {
        "id": "2-6-walking",
        "dayId": "day-2",
        "mode": "walking",
        "verified": true,
        "source": "Migrated from reviewed V3 c48adda route geometry"
      },
      "geometry": {
        "type": "LineString",
        "coordinates": [
          [
            126.31106,
            33.4593
          ],
          [
            126.31127,
            33.45991
          ],
          [
            126.31088,
            33.46032
          ],
          [
            126.31049,
            33.46101
          ],
          [
            126.31087,
            33.46153
          ],
          [
            126.31077,
            33.46189
          ],
          [
            126.31033,
            33.4623
          ],
          [
            126.30979,
            33.46247
          ],
          [
            126.30971,
            33.46256
          ],
          [
            126.30906,
            33.46262
          ],
          [
            126.30868,
            33.46299
          ],
          [
            126.3089,
            33.46354
          ],
          [
            126.30881,
            33.46405
          ],
          [
            126.30886,
            33.46458
          ],
          [
            126.30902,
            33.46475
          ],
          [
            126.30924,
            33.46482
          ],
          [
            126.30927,
            33.465
          ],
          [
            126.30942,
            33.46509
          ],
          [
            126.30987,
            33.46532
          ],
          [
            126.31065,
            33.46545
          ],
          [
            126.31099,
            33.46567
          ],
          [
            126.31094,
            33.46578
          ]
        ]
      }
    },
    {
      "type": "Feature",
      "properties": {
        "id": "2-7-driving",
        "dayId": "day-2",
        "mode": "driving",
        "verified": true,
        "source": "Migrated from reviewed V3 c48adda route geometry"
      },
      "geometry": {
        "type": "LineString",
        "coordinates": [
          [
            126.31094,
            33.46578
          ],
          [
            126.31197,
            33.46559
          ],
          [
            126.31252,
            33.46518
          ],
          [
            126.31334,
            33.46528
          ],
          [
            126.31501,
            33.46399
          ],
          [
            126.31759,
            33.46475
          ],
          [
            126.31873,
            33.4647
          ],
          [
            126.32246,
            33.46385
          ],
          [
            126.32826,
            33.46319
          ],
          [
            126.32961,
            33.46265
          ],
          [
            126.33624,
            33.46237
          ],
          [
            126.33825,
            33.46255
          ],
          [
            126.35015,
            33.46658
          ],
          [
            126.35884,
            33.46779
          ],
          [
            126.3662,
            33.47088
          ],
          [
            126.3639,
            33.47336
          ],
          [
            126.36453,
            33.47486
          ],
          [
            126.3653,
            33.47534
          ],
          [
            126.36453,
            33.47813
          ],
          [
            126.36942,
            33.4783
          ],
          [
            126.36963,
            33.47871
          ],
          [
            126.37307,
            33.4804
          ],
          [
            126.37408,
            33.48143
          ],
          [
            126.3742,
            33.48123
          ]
        ]
      }
    },
    {
      "type": "Feature",
      "properties": {
        "id": "2-8-driving",
        "dayId": "day-2",
        "mode": "driving",
        "verified": true,
        "source": "Migrated from reviewed V3 c48adda route geometry"
      },
      "geometry": {
        "type": "LineString",
        "coordinates": [
          [
            126.374201,
            33.481225
          ],
          [
            126.375024,
            33.480342
          ],
          [
            126.375084,
            33.478385
          ],
          [
            126.376142,
            33.478391
          ],
          [
            126.375731,
            33.474245
          ],
          [
            126.38889,
            33.478138
          ],
          [
            126.396244,
            33.479569
          ],
          [
            126.403033,
            33.483068
          ],
          [
            126.410149,
            33.484919
          ],
          [
            126.41623,
            33.487494
          ],
          [
            126.424296,
            33.492191
          ],
          [
            126.437004,
            33.494197
          ],
          [
            126.44277,
            33.49317
          ],
          [
            126.452289,
            33.495189
          ],
          [
            126.457919,
            33.495498
          ],
          [
            126.467711,
            33.494033
          ],
          [
            126.484157,
            33.493642
          ],
          [
            126.486453,
            33.490065
          ],
          [
            126.489429,
            33.489965
          ],
          [
            126.489203,
            33.489331
          ]
        ]
      }
    },
    {
      "type": "Feature",
      "properties": {
        "id": "3-1-driving",
        "dayId": "day-3",
        "mode": "driving",
        "verified": true,
        "source": "Migrated from reviewed V3 c48adda route geometry"
      },
      "geometry": {
        "type": "LineString",
        "coordinates": [
          [
            126.4892,
            33.4892
          ],
          [
            126.49216,
            33.4938
          ],
          [
            126.55625,
            33.50739
          ],
          [
            126.60173,
            33.48635
          ],
          [
            126.64438,
            33.47109
          ],
          [
            126.68993,
            33.46707
          ],
          [
            126.73612,
            33.43579
          ],
          [
            126.77618,
            33.4436
          ],
          [
            126.82416,
            33.43311
          ],
          [
            126.87313,
            33.43851
          ],
          [
            126.91851,
            33.44817
          ],
          [
            126.93213,
            33.46463
          ],
          [
            126.9335,
            33.4732
          ]
        ]
      }
    },
    {
      "type": "Feature",
      "properties": {
        "id": "3-2-ferry",
        "dayId": "day-3",
        "mode": "ferry",
        "verified": true,
        "source": "Migrated from reviewed V3 c48adda route geometry"
      },
      "geometry": {
        "type": "LineString",
        "coordinates": [
          [
            126.9335,
            33.4732
          ],
          [
            126.9362,
            33.4782
          ],
          [
            126.9388,
            33.4851
          ],
          [
            126.9412,
            33.4924
          ],
          [
            126.9432,
            33.4995
          ],
          [
            126.9423,
            33.5034
          ],
          [
            126.9415,
            33.506
          ]
        ]
      }
    },
    {
      "type": "Feature",
      "properties": {
        "id": "3-3-driving",
        "dayId": "day-3",
        "mode": "driving",
        "verified": true,
        "source": "Migrated from reviewed V3 c48adda route geometry"
      },
      "geometry": {
        "type": "LineString",
        "coordinates": [
          [
            126.9415,
            33.50602
          ],
          [
            126.94232,
            33.50714
          ],
          [
            126.94358,
            33.50798
          ],
          [
            126.94344,
            33.50938
          ],
          [
            126.94656,
            33.50952
          ],
          [
            126.94956,
            33.50812
          ],
          [
            126.95061,
            33.50721
          ],
          [
            126.94945,
            33.50542
          ],
          [
            126.95024,
            33.50535
          ],
          [
            126.95102,
            33.5051
          ],
          [
            126.952,
            33.505
          ]
        ]
      }
    },
    {
      "type": "Feature",
      "properties": {
        "id": "3-4-ferry",
        "dayId": "day-3",
        "mode": "ferry",
        "verified": true,
        "source": "Migrated from reviewed V3 c48adda route geometry"
      },
      "geometry": {
        "type": "LineString",
        "coordinates": [
          [
            126.952,
            33.505
          ],
          [
            126.95024,
            33.50535
          ],
          [
            126.94945,
            33.50542
          ],
          [
            126.95061,
            33.50721
          ],
          [
            126.94956,
            33.50812
          ],
          [
            126.94656,
            33.50952
          ],
          [
            126.94344,
            33.50938
          ],
          [
            126.94358,
            33.50798
          ],
          [
            126.9415,
            33.506
          ],
          [
            126.9423,
            33.5034
          ],
          [
            126.9432,
            33.4995
          ],
          [
            126.9412,
            33.4924
          ],
          [
            126.9388,
            33.4851
          ],
          [
            126.9362,
            33.4782
          ],
          [
            126.9335,
            33.4732
          ]
        ]
      }
    },
    {
      "type": "Feature",
      "properties": {
        "id": "3-5-driving",
        "dayId": "day-3",
        "mode": "driving",
        "verified": true,
        "source": "Migrated from reviewed V3 c48adda route geometry"
      },
      "geometry": {
        "type": "LineString",
        "coordinates": [
          [
            126.9335,
            33.4732
          ],
          [
            126.93203,
            33.46407
          ],
          [
            126.93413,
            33.46301
          ],
          [
            126.93493,
            33.46288
          ],
          [
            126.93623,
            33.46249
          ],
          [
            126.938,
            33.4614
          ],
          [
            126.9402,
            33.4601
          ],
          [
            126.9424,
            33.4588
          ]
        ]
      }
    },
    {
      "type": "Feature",
      "properties": {
        "id": "3-6-driving",
        "dayId": "day-3",
        "mode": "driving",
        "verified": true,
        "source": "Migrated from reviewed V3 c48adda route geometry"
      },
      "geometry": {
        "type": "LineString",
        "coordinates": [
          [
            126.9424,
            33.4588
          ],
          [
            126.93623,
            33.46249
          ],
          [
            126.93203,
            33.46407
          ],
          [
            126.92885,
            33.46872
          ],
          [
            126.91761,
            33.46876
          ],
          [
            126.90864,
            33.46529
          ],
          [
            126.90285,
            33.47059
          ],
          [
            126.89835,
            33.47884
          ],
          [
            126.89707,
            33.48868
          ],
          [
            126.88601,
            33.51328
          ],
          [
            126.87406,
            33.51926
          ],
          [
            126.86014,
            33.51849
          ],
          [
            126.84431,
            33.52772
          ],
          [
            126.82543,
            33.53977
          ],
          [
            126.80406,
            33.54613
          ],
          [
            126.79477,
            33.55092
          ],
          [
            126.79769,
            33.55455
          ],
          [
            126.7958,
            33.5564
          ]
        ]
      }
    },
    {
      "type": "Feature",
      "properties": {
        "id": "3-7-driving",
        "dayId": "day-3",
        "mode": "driving",
        "verified": true,
        "source": "Migrated from reviewed V3 c48adda route geometry"
      },
      "geometry": {
        "type": "LineString",
        "coordinates": [
          [
            126.7958,
            33.5564
          ],
          [
            126.7912,
            33.55179
          ],
          [
            126.78594,
            33.55223
          ],
          [
            126.77733,
            33.54928
          ],
          [
            126.76764,
            33.55162
          ],
          [
            126.74464,
            33.55132
          ],
          [
            126.73648,
            33.55533
          ],
          [
            126.72921,
            33.55608
          ],
          [
            126.7092,
            33.55049
          ],
          [
            126.69405,
            33.53554
          ],
          [
            126.68636,
            33.53158
          ],
          [
            126.6692,
            33.53088
          ],
          [
            126.64816,
            33.52781
          ],
          [
            126.63107,
            33.52759
          ],
          [
            126.6178,
            33.52503
          ],
          [
            126.60411,
            33.52181
          ],
          [
            126.59104,
            33.52181
          ],
          [
            126.5764,
            33.5213
          ],
          [
            126.56439,
            33.5188
          ],
          [
            126.5434,
            33.50986
          ],
          [
            126.52294,
            33.49974
          ],
          [
            126.5059,
            33.50036
          ],
          [
            126.49482,
            33.49688
          ],
          [
            126.49024,
            33.49235
          ],
          [
            126.48997,
            33.48585
          ],
          [
            126.4875,
            33.486
          ]
        ]
      }
    },
    {
      "type": "Feature",
      "properties": {
        "id": "4-1-driving",
        "dayId": "day-4",
        "mode": "driving",
        "verified": true,
        "source": "Migrated from reviewed V3 c48adda route geometry"
      },
      "geometry": {
        "type": "LineString",
        "coordinates": [
          [
            126.4892,
            33.4892
          ],
          [
            126.49216,
            33.4938
          ],
          [
            126.55625,
            33.50739
          ],
          [
            126.60173,
            33.48635
          ],
          [
            126.62752,
            33.47831
          ],
          [
            126.64438,
            33.47109
          ],
          [
            126.65984,
            33.46972
          ],
          [
            126.66105,
            33.46162
          ],
          [
            126.66298,
            33.45836
          ],
          [
            126.66206,
            33.4536
          ],
          [
            126.66434,
            33.44629
          ],
          [
            126.66657,
            33.4428
          ],
          [
            126.67011,
            33.44246
          ],
          [
            126.66835,
            33.44561
          ],
          [
            126.66636,
            33.44631
          ],
          [
            126.66689,
            33.44841
          ],
          [
            126.6703,
            33.4488
          ]
        ]
      }
    },
    {
      "type": "Feature",
      "properties": {
        "id": "4-2-driving",
        "dayId": "day-4",
        "mode": "driving",
        "verified": true,
        "source": "Migrated from reviewed V3 c48adda route geometry"
      },
      "geometry": {
        "type": "LineString",
        "coordinates": [
          [
            126.6703,
            33.4488
          ],
          [
            126.66636,
            33.44631
          ],
          [
            126.66835,
            33.44561
          ],
          [
            126.66858,
            33.44449
          ],
          [
            126.66986,
            33.44398
          ],
          [
            126.67011,
            33.44246
          ],
          [
            126.66657,
            33.4428
          ],
          [
            126.67229,
            33.43352
          ],
          [
            126.67526,
            33.43483
          ],
          [
            126.68493,
            33.43515
          ],
          [
            126.69177,
            33.4355
          ],
          [
            126.70909,
            33.43295
          ],
          [
            126.72135,
            33.43499
          ],
          [
            126.73382,
            33.43474
          ],
          [
            126.74249,
            33.43377
          ],
          [
            126.75512,
            33.42574
          ],
          [
            126.76672,
            33.4117
          ],
          [
            126.77861,
            33.4055
          ],
          [
            126.78759,
            33.39887
          ],
          [
            126.78987,
            33.3889
          ],
          [
            126.7862,
            33.38989
          ],
          [
            126.78495,
            33.389
          ]
        ]
      }
    },
    {
      "type": "Feature",
      "properties": {
        "id": "5-1-walking",
        "dayId": "day-5",
        "mode": "walking",
        "verified": true,
        "source": "Migrated from reviewed V3 c48adda route geometry"
      },
      "geometry": {
        "type": "LineString",
        "coordinates": [
          [
            126.4892,
            33.4892
          ],
          [
            126.48807,
            33.48935
          ],
          [
            126.48799,
            33.48843
          ],
          [
            126.48799,
            33.48696
          ],
          [
            126.4879,
            33.48594
          ],
          [
            126.4875,
            33.486
          ]
        ]
      }
    },
    {
      "type": "Feature",
      "properties": {
        "id": "5-2-walking",
        "dayId": "day-5",
        "mode": "walking",
        "verified": true,
        "source": "Migrated from reviewed V3 c48adda route geometry"
      },
      "geometry": {
        "type": "LineString",
        "coordinates": [
          [
            126.4875,
            33.486
          ],
          [
            126.48641,
            33.486
          ],
          [
            126.48627,
            33.48597
          ],
          [
            126.48626,
            33.4856
          ],
          [
            126.48607,
            33.48512
          ],
          [
            126.48602,
            33.48488
          ],
          [
            126.48226,
            33.48501
          ],
          [
            126.48223,
            33.48458
          ],
          [
            126.48149,
            33.4851
          ]
        ]
      }
    },
    {
      "type": "Feature",
      "properties": {
        "id": "5-3-walking",
        "dayId": "day-5",
        "mode": "walking",
        "verified": true,
        "source": "Migrated from reviewed V3 c48adda route geometry"
      },
      "geometry": {
        "type": "LineString",
        "coordinates": [
          [
            126.48149,
            33.4851
          ],
          [
            126.48223,
            33.48458
          ],
          [
            126.48226,
            33.48501
          ],
          [
            126.48602,
            33.48488
          ],
          [
            126.48607,
            33.48512
          ],
          [
            126.48626,
            33.4856
          ],
          [
            126.48627,
            33.48597
          ],
          [
            126.48661,
            33.48699
          ],
          [
            126.48928,
            33.48691
          ],
          [
            126.48932,
            33.48788
          ],
          [
            126.4905,
            33.4878
          ]
        ]
      }
    },
    {
      "type": "Feature",
      "properties": {
        "id": "5-4-walking",
        "dayId": "day-5",
        "mode": "walking",
        "verified": true,
        "source": "Migrated from reviewed V3 c48adda route geometry"
      },
      "geometry": {
        "type": "LineString",
        "coordinates": [
          [
            126.4905,
            33.4878
          ],
          [
            126.48932,
            33.48788
          ],
          [
            126.48939,
            33.48933
          ],
          [
            126.4892,
            33.4892
          ]
        ]
      }
    },
    {
      "type": "Feature",
      "properties": {
        "id": "5-5-driving",
        "dayId": "day-5",
        "mode": "driving",
        "verified": true,
        "source": "Migrated from reviewed V3 c48adda route geometry"
      },
      "geometry": {
        "type": "LineString",
        "coordinates": [
          [
            126.4892,
            33.4892
          ],
          [
            126.48939,
            33.48933
          ],
          [
            126.48943,
            33.48996
          ],
          [
            126.49015,
            33.48993
          ],
          [
            126.49024,
            33.49235
          ],
          [
            126.49231,
            33.49392
          ],
          [
            126.49452,
            33.49671
          ],
          [
            126.497,
            33.49756
          ],
          [
            126.49702,
            33.49849
          ],
          [
            126.49623,
            33.50536
          ],
          [
            126.49568,
            33.50601
          ],
          [
            126.49483,
            33.50663
          ],
          [
            126.493,
            33.5104
          ]
        ]
      }
    }
  ]
}
